#dP2023 11  8 12  0  0.00000000      96 __u+U IGS20 EXT  IAC
## 2287 302400.00000000   900.00000000 60256 0.5000000000000
+  117   C06C07C08C09C10C11C12C13C14C16C19C20C21C22C23C24C25
+        C26C27C28C29C30C32C33C34C35C36C37C38C39C40C41C42C43
+        C44C45C46E02E03E04E05E07E08E09E10E11E12E13E15E19E21
+        E24E25E26E27E30E31E33E34E36G01G02G03G04G05G06G07G08
+        G09G10G11G12G13G14G15G16G17G18G19G20G21G22G23G24G26
+        G27G28G29G30G31G32J02J03J04R01R02R03R04R05R07R08R09
+        R11R12R13R14R15R16R17R18R19R20R21R22R24R25R26  0  0
++         8  9  9 10  9  9  9 10 10 10  9  9  9  8 10  9  8
++         8  7  8  9  8  9 10  7 10  8 10 10  9 12  8 10 10
++         8  8  7  8  7  7 11  7  8  7  8  9  7  7  9  9  7
++         8  7  7  8  9  8  7  8  6  7  0  0  7  0  7  0  0
++         6  0  6  6  8  7  7  7  7  0  7  6  8  8  7  7  7
++         7  6  7  7  7  0  9  9 11  8  7  8  8  9  9  9  8
++         9 10  9  8  8  8  9  9 10  7  8  9  9  7 11  0  0
%c M  cc GPS ccc cccc cccc cccc cccc ccccc ccccc ccccc ccccc
%c cc cc ccc ccc cccc cccc cccc cccc ccccc ccccc ccccc ccccc
%f  0.0000000  0.000000000  0.00000000000  0.000000000000000
%f  0.0000000  0.000000000  0.00000000000  0.000000000000000
%i    0    0    0    0      0      0      0      0         0
%i    0    0    0    0      0      0      0      0         0
/* IAC                                ULTRA-RAPID PREDICTION
/* S/V CLOCKS ARE ALIGNED TO GNSS TIME                      
/* G:C1WC2W R:C1PC2P E:C1XC5X C:C2IC6I J:C1CC2S             
/* PCV:IGS20_2280 OL/AL:FES2004  NONE     YN ORB:CoN CLK:CoN
*  2023 11 08 21 30  0.00000000
PC06 -16921.177730  26874.487564 -27834.975335     14.229367
PC07  -9082.945734  40289.405474  -7888.122809   -287.760470
PC08    337.102857  24647.135508  34259.965152    251.576607
PC09  -8275.951207  26029.801227 -31854.744824    -63.995088
PC10  -2215.272029  41811.554093   -101.861078    -10.098338
PC11  -6793.679853  19487.729077  18849.160688    246.017727
PC12 -21693.450509  17272.783079   3120.697027    866.261969
PC13   5986.395738  28163.468469  31067.987416    379.783651
PC14    760.858189  27716.290931   2918.482626    745.672686
PC16 -21345.004888  26018.064163 -25359.783807   -165.810771
PC19  -6953.666099 -26265.043989   6418.312560   -973.341538
PC20   4463.313143 -25588.574104 -10228.849126    133.699043
PC21 -14218.398774   9245.511373  22163.396616   -969.216443
PC22 -14991.258890 -11905.939738  20299.486583   -233.065771
PC23  24917.142857  12491.021010  -1473.500483   -825.669686
PC24  -8129.256261  14222.203896 -22606.592984    576.977584
PC25  13036.556543  18410.635662 -16453.869393    251.267562
PC26 -22947.132557   2474.179425 -15678.063116   -203.435467
PC27  24366.459794 -12491.744194   5351.516659    225.299860
PC28  20710.708709   1414.416014  18661.483535    169.918062
PC29  -3862.435775 -16560.607316 -22127.372467    198.751050
PC30  14855.030388 -20928.015719 -10941.276433     -7.977558
PC32  14181.229600  -9247.332525 -22178.096454   -533.674496
PC33   7052.450412  26253.080650  -6291.216694   -946.314496
PC34 -13677.213374  21084.109115  12141.256500    299.122397
PC35 -20867.690288   -569.611616 -18542.178117    507.205942
PC36 -11723.687931 -18753.971083  17027.964168   -142.975045
PC37  23417.968250  -1359.448025  15146.742016   -879.845821
PC38  -8608.843254  21746.963604  35137.413292    116.453050
PC39 -24135.379346  26856.871756 -21947.571694     -5.589554
PC40 -14675.701469  37803.456689 -11030.415804    -43.244218
PC41  14893.536313  12644.024289 -19879.236179   -871.381518
PC42  -5434.951783  24798.631765  11599.010375   -503.405097
PC43   2978.494194  17146.970193  21812.119908     47.432338
PC44 -23948.322173  13245.937496  -5538.671523    286.833657
PC45 -25069.900585 -12187.251246    922.820199    -44.238156
PC46   6955.086711 -14634.720024  22713.557167    -98.241994
PE02 -20675.668743 -17706.445160 -11603.098008     76.816101
PE03 -15137.318228  -7715.837614  24227.133817    -72.152706
PE04  20255.165450 -13174.125039 -17097.850986   -253.044923
PE05  -1299.984676 -23988.560869  17286.956323     35.523175
PE07 -13686.648847  26241.533100    248.547088    -86.762723
PE08 -20166.089963  12712.393780  17534.361708   -174.020148
PE09  13754.157605 -26213.980912   -398.219569   -220.754765
PE10  23441.476078 -10602.240762 -14650.564373   -577.389862
PE11  13887.615899 -14659.623493 -21645.622190   3185.924437
PE12  28448.721506  -5333.727661  -6174.433649   -769.113224
PE13 -14628.016934  14415.655773  21323.649881    -19.605606
PE15 -28596.001698   5070.855498   5724.713940    -67.878395
PE19  13591.464099  10243.614568 -24219.315333  -1255.164952
PE21  11829.925942  26424.583906  -6178.903383   -563.175964
PE24   4928.554562 -19837.222392  21388.360762   -420.943857
PE25 -11550.434825 -26452.801152   6543.570974     -3.636908
PE26   8459.929120  15215.970316  23949.804532    275.265983
PE27  -4377.005961  20215.937780 -21175.358337   -195.051141
PE30 -18031.960990   1777.475394 -23410.428283   -646.377712
PE31  17836.723322  -2154.087643  23533.795628     -9.681792
PE33  25263.779413   7461.277695  13520.998951      1.954308
PE34 -25621.600342  -7072.795411 -13008.764551    -76.884222
PE36  -7674.721939 -15188.368279 -24212.183102   -141.337897
PG01  -9180.548386 -13712.832552 -21233.486744    163.202818
PG02  -2590.186911 -14615.571808 -21526.046823   -531.518162
PG03 -11702.148438 -23579.418223  -4091.406571    -27.024309
PG04      0.000000      0.000000      0.000000    207.516087
PG05   1858.150991  21250.020119  15587.310712   -149.643854
PG06      0.000000      0.000000      0.000000    510.964589
PG07 -23834.383902  -6687.069738  10724.015155     18.574596
PG08   3007.270196 -23858.586370 -10887.744440   -151.173644
PG09      0.000000      0.000000      0.000000     -8.680763
PG10  17179.038628   1982.149759 -20067.138331    -60.609692
PG11 -15599.646198  12148.249920  17729.419522   -451.686142
PG12      0.000000      0.000000      0.000000   -444.885819
PG13 -12879.071042  22776.143393  -4028.479361    593.155974
PG14 -18554.718078  -5494.727910 -18243.563251    237.714956
PG15      0.000000      0.000000      0.000000     95.210348
PG16      0.000000      0.000000      0.000000   -425.446435
PG17 -17984.365484   5558.731742 -18352.201260    723.424502
PG18  24639.015365   5302.749674   8682.831191   -473.466747
PG19      0.000000      0.000000      0.000000    396.244290
PG20      0.000000      0.000000      0.000000    402.624287
PG21    593.225636 -15052.887988 -21296.929724    144.771256
PG22 -15512.503369   1775.804488 -20998.133863     87.510064
PG23  19281.686510  13712.276118 -12241.928487     95.708693
PG24   4540.508355  15457.560794 -21536.710602   -366.592991
PG26  12157.483488 -10031.646976  21238.120883    217.966779
PG27  12673.717300 -23042.436981   1035.616863    -67.201379
PG28      0.000000      0.000000      0.000000    -41.934707
PG29      0.000000      0.000000      0.000000   -610.228676
PG30 -26696.418822    572.271662    581.769042   -470.294483
PG31  20393.592208 -10176.272660  13775.425946   -225.549036
PG32  18016.604174  -9862.806603 -16539.866472   -583.369468
PJ02 -19840.709857  23689.225013 -23966.038975     -0.121112
PJ03 -30395.226558  27171.413797  15974.485797     -7.593428
PJ04 -27473.452505  27827.499345  21650.087101     72.114279
PR01   1031.097700 -25473.736770    920.812293     69.394701
PR02  -6432.789661 -17659.220459  17245.482951    -22.354006
PR03 -10933.044738    229.550508  23086.187741     88.652595
PR04  -9200.699249  17430.618953  16227.282283    210.266030
PR05  -2714.698029  25374.010134    580.918131    121.929907
PR07  10950.052601  -1043.888162 -22978.115832     68.687765
PR08   9067.871557 -17637.813063 -15965.185573    -73.208707
PR09  19228.548288  15776.810785  -5455.299750    152.142588
PR11  12555.515264  -4013.628327  21844.494977   -211.802315
PR12  -5315.695856 -15170.236848  19823.573126     33.216278
PR13 -17939.236941 -16438.739664   7634.322681    -41.091001
PR14 -21392.903670  -7704.962947 -11567.450959     25.512805
PR15 -11535.879739   4996.386161 -22177.621510     84.873611
PR16   5201.090379  14912.729036 -20011.715446     20.439892
PR17 -22501.062676   4901.260750 -10904.617846     33.131056
PR18 -21578.298647  12447.363918   5610.829633    110.983335
PR19 -11381.464497  13556.917342  18367.965931   -253.943446
PR20   9930.368821   6748.624268  22514.728521   -103.187780
PR21  22779.681445  -5202.099736  10277.455525    -51.905868
PR22  21458.494737 -12156.104861  -6468.379003     92.597035
PR24 -10937.470778  -6426.889662 -22102.422029    -31.401093
PR25  22790.457422  -3806.957093  10843.684981     -6.297819
PR26   9130.692248 -17241.225535 -16427.539618    -17.522989
EOF
